[{"OBJECT_NAME":"QIANFAN-105","OBJECT_ID":"2025-233Q","EPOCH":"2026-03-09T22:48:57.074976","MEAN_MOTION":13.50981855,"ECCENTRICITY":0.00021259,"INCLINATION":88.9961,"RA_OF_ASC_NODE":52.9482,"ARG_OF_PERICENTER":91.2864,"MEAN_ANOMALY":268.8531,"EPHEMERIS_TYPE":0,"CLASSIFICATION_TYPE":"U","NORAD_CAT_ID":66047,"ELEMENT_SET_NO":999,"REV_AT_EPOCH":1994,"BSTAR":9.2711293e-5,"MEAN_MOTION_DOT":7.2e-7,"MEAN_MOTION_DDOT":0},{"OBJECT_NAME":"FENGYUN 1C DEB","OBJECT_ID":"1999-025BCX","EPOCH":"2026-03-09T07:43:09.956928","MEAN_MOTION":13.83667721,"ECCENTRICITY":0.01810888,"INCLINATION":98.6163,"RA_OF_ASC_NODE":199.8752,"ARG_OF_PERICENTER":90.8426,"MEAN_ANOMALY":325.194,"EPHEMERIS_TYPE":0,"CLASSIFICATION_TYPE":"U","NORAD_CAT_ID":31005,"ELEMENT_SET_NO":999,"REV_AT_EPOCH":95478,"BSTAR":0.0016211116,"MEAN_MOTION_DOT":1.996e-5,"MEAN_MOTION_DDOT":0}]
